start=new Date('2021-10-21T00:00:00.000Z').valueOf();
sats=[{"GP_ID":"187757400","EPHEMERIS_TYPE":"0","PERIAPSIS":"546.090","COUNTRY_CODE":"US","MEAN_MOTION_DOT":"0.00000140","ARG_OF_PERICENTER":"79.8570","SEMIMAJOR_AXIS":"6925.333","MEAN_MOTION":"15.06405228","OBJECT_ID":"2020-088AR","CENTER_NAME":"EARTH","PERIOD":"95.592","REF_FRAME":"TEME","TLE_LINE2":"2 47161  53.0533 278.7779 0001599  79.8570 280.2600 15.06405228 50676","INCLINATION":"53.0533","DECAY_DATE":null,"EPOCH":"2021-10-20T16:34:58.518048","APOAPSIS":"548.305","OBJECT_NAME":"STARLINK-1876","MEAN_MOTION_DDOT":"0.0000000000000","ECCENTRICITY":"0.00015990","ELEMENT_SET_NO":"999","NORAD_CAT_ID":"47161","OBJECT_TYPE":"PAYLOAD","FILE":"3175135","MEAN_ELEMENT_THEORY":"SGP4","LAUNCH_DATE":"2020-11-25","RA_OF_ASC_NODE":"278.7779","TIME_SYSTEM":"UTC","SITE":"AFETR","CLASSIFICATION_TYPE":"U","REV_AT_EPOCH":"5067","TLE_LINE1":"1 47161U 20088AR  21293.69095507  .00000140  00000-0  28265-4 0  9997","MEAN_ANOMALY":"280.2600","RCS_SIZE":"LARGE","BSTAR":"0.00002826500000"},{"NORAD_CAT_ID":"47162","OBJECT_TYPE":"PAYLOAD","MEAN_ELEMENT_THEORY":"SGP4","FILE":"3175135","MEAN_MOTION_DDOT":"0.0000000000000","ECCENTRICITY":"0.00014760","ELEMENT_SET_NO":"999","EPOCH":"2021-10-20T16:28:20.119872","APOAPSIS":"548.241","OBJECT_NAME":"STARLINK-1877","MEAN_ANOMALY":"287.7122","TLE_LINE1":"1 47162U 20088AS  21293.68634398 -.00002122  00000-0 -12362-3 0  9998","BSTAR":"-0.00012362000000","RCS_SIZE":"LARGE","LAUNCH_DATE":"2020-11-25","RA_OF_ASC_NODE":"288.7917","TIME_SYSTEM":"UTC","CLASSIFICATION_TYPE":"U","REV_AT_EPOCH":"5053","SITE":"AFETR","ARG_OF_PERICENTER":"72.4028","SEMIMAJOR_AXIS":"6925.354","GP_ID":"187756159","EPHEMERIS_TYPE":"0","PERIAPSIS":"546.197","MEAN_MOTION_DOT":"-0.00002122","COUNTRY_CODE":"US","INCLINATION":"53.0551","DECAY_DATE":null,"REF_FRAME":"TEME","TLE_LINE2":"2 47162  53.0551 288.7917 0001476  72.4028 287.7122 15.06398263 50539","OBJECT_ID":"2020-088AS","MEAN_MOTION":"15.06398263","PERIOD":"95.592","CENTER_NAME":"EARTH"},{"SEMIMAJOR_AXIS":"6925.335","ARG_OF_PERICENTER":"70.9448","MEAN_MOTION_DOT":"-0.00001524","COUNTRY_CODE":"US","PERIAPSIS":"546.292","GP_ID":"187756409","EPHEMERIS_TYPE":"0","DECAY_DATE":null,"INCLINATION":"53.0547","TLE_LINE2":"2 47163  53.0547 298.7868 0001311  70.9448 289.1682 15.06404465 50391","REF_FRAME":"TEME","PERIOD":"95.592","CENTER_NAME":"EARTH","OBJECT_ID":"2020-088AT","MEAN_MOTION":"15.06404465","MEAN_ELEMENT_THEORY":"SGP4","FILE":"3175135","OBJECT_TYPE":"PAYLOAD","NORAD_CAT_ID":"47163","ELEMENT_SET_NO":"999","ECCENTRICITY":"0.00013110","MEAN_MOTION_DDOT":"0.0000000000000","OBJECT_NAME":"STARLINK-1878","APOAPSIS":"548.108","EPOCH":"2021-10-20T17:14:46.913856","BSTAR":"-0.00008341000000","RCS_SIZE":"LARGE","MEAN_ANOMALY":"289.1682","TLE_LINE1":"1 47163U 20088AT  21293.71859854 -.00001524  00000-0 -83410-4 0  9997","CLASSIFICATION_TYPE":"U","REV_AT_EPOCH":"5039","SITE":"AFETR","TIME_SYSTEM":"UTC","RA_OF_ASC_NODE":"298.7868","LAUNCH_DATE":"2020-11-25"},{"ELEMENT_SET_NO":"999","ECCENTRICITY":"0.00014710","MEAN_MOTION_DDOT":"0.0000000000000","OBJECT_NAME":"STARLINK-1879","APOAPSIS":"548.256","EPOCH":"2021-10-20T15:21:59.549184","MEAN_ELEMENT_THEORY":"SGP4","FILE":"3175135","OBJECT_TYPE":"PAYLOAD","NORAD_CAT_ID":"47164","CLASSIFICATION_TYPE":"U","REV_AT_EPOCH":"5080","SITE":"AFETR","TIME_SYSTEM":"UTC","RA_OF_ASC_NODE":"268.9991","LAUNCH_DATE":"2020-11-25","BSTAR":"0.00000197040000","RCS_SIZE":"LARGE","MEAN_ANOMALY":"284.0743","TLE_LINE1":"1 47164U 20088AU  21293.64027256 -.00000252  00000-0  19704-5 0  9995","MEAN_MOTION_DOT":"-0.00000252","COUNTRY_CODE":"US","PERIAPSIS":"546.218","EPHEMERIS_TYPE":"0","GP_ID":"187756660","SEMIMAJOR_AXIS":"6925.372","ARG_OF_PERICENTER":"76.0409","CENTER_NAME":"EARTH","PERIOD":"95.593","OBJECT_ID":"2020-088AU","MEAN_MOTION":"15.06392381","DECAY_DATE":null,"INCLINATION":"53.0551","TLE_LINE2":"2 47164  53.0551 268.9991 0001471  76.0409 284.0743 15.06392381 50805","REF_FRAME":"TEME"},{"ECCENTRICITY":"0.00016010","MEAN_MOTION_DDOT":"0.0000000000000","ELEMENT_SET_NO":"999","EPOCH":"2021-10-20T17:05:30.188544","APOAPSIS":"548.353","OBJECT_NAME":"STARLINK-1880","NORAD_CAT_ID":"47165","OBJECT_TYPE":"PAYLOAD","MEAN_ELEMENT_THEORY":"SGP4","FILE":"3175135","RA_OF_ASC_NODE":"288.6873","LAUNCH_DATE":"2020-11-25","TIME_SYSTEM":"UTC","REV_AT_EPOCH":"5053","CLASSIFICATION_TYPE":"U","SITE":"AFETR","MEAN_ANOMALY":"291.0148","TLE_LINE1":"1 47165U 20088AV  21293.71215496 -.00000153  00000-0  86014-5 0  9997","BSTAR":"0.00000860140000","RCS_SIZE":"LARGE","EPHEMERIS_TYPE":"0","GP_ID":"187756900","PERIAPSIS":"546.135","MEAN_MOTION_DOT":"-0.00000153","COUNTRY_CODE":"US","ARG_OF_PERICENTER":"69.1012","SEMIMAJOR_AXIS":"6925.379","OBJECT_ID":"2020-088AV","MEAN_MOTION":"15.06390035","CENTER_NAME":"EARTH","PERIOD":"95.593","INCLINATION":"53.0538","DECAY_DATE":null,"REF_FRAME":"TEME","TLE_LINE2":"2 47165  53.0538 288.6873 0001601  69.1012 291.0148 15.06390035 50538"},{"MEAN_ELEMENT_THEORY":"SGP4","FILE":"3175135","OBJECT_TYPE":"PAYLOAD","NORAD_CAT_ID":"47166","ELEMENT_SET_NO":"999","ECCENTRICITY":"0.00008900","MEAN_MOTION_DDOT":"0.0000000000000","OBJECT_NAME":"STARLINK-1881","APOAPSIS":"476.876","EPOCH":"2021-10-20T14:52:23.367360","BSTAR":"0.00056097000000","RCS_SIZE":"LARGE","MEAN_ANOMALY":"293.8792","TLE_LINE1":"1 47166U 20088AW  21293.61971490  .00016114  00000-0  56097-3 0  9999","REV_AT_EPOCH":"5102","CLASSIFICATION_TYPE":"U","SITE":"AFETR","TIME_SYSTEM":"UTC","RA_OF_ASC_NODE":"253.6129","LAUNCH_DATE":"2020-11-25","SEMIMAJOR_AXIS":"6854.401","ARG_OF_PERICENTER":"66.2300","MEAN_MOTION_DOT":"0.00016114","COUNTRY_CODE":"US","PERIAPSIS":"475.656","EPHEMERIS_TYPE":"0","GP_ID":"187755659","DECAY_DATE":null,"INCLINATION":"53.0500","TLE_LINE2":"2 47166  53.0500 253.6129 0000890  66.2300 293.8792 15.29848810 51025","REF_FRAME":"TEME","PERIOD":"94.127","CENTER_NAME":"EARTH","OBJECT_ID":"2020-088AW","MEAN_MOTION":"15.29848810"},{"INCLINATION":"53.0537","DECAY_DATE":null,"REF_FRAME":"TEME","TLE_LINE2":"2 47167  53.0537 288.7649 0006049 316.4616  43.5894 15.06400819 50530","OBJECT_ID":"2020-088AX","MEAN_MOTION":"15.06400819","CENTER_NAME":"EARTH","PERIOD":"95.592","ARG_OF_PERICENTER":"316.4616","SEMIMAJOR_AXIS":"6925.346","GP_ID":"187755909","EPHEMERIS_TYPE":"0","PERIAPSIS":"543.022","MEAN_MOTION_DOT":"-0.00000360","COUNTRY_CODE":"US","MEAN_ANOMALY":"43.5894","TLE_LINE1":"1 47167U 20088AX  21293.69740956 -.00000360  00000-0 -51694-5 0  9997","BSTAR":"-0.00000516940000","RCS_SIZE":"LARGE","RA_OF_ASC_NODE":"288.7649","LAUNCH_DATE":"2020-11-25","TIME_SYSTEM":"UTC","CLASSIFICATION_TYPE":"U","REV_AT_EPOCH":"5053","SITE":"AFETR","NORAD_CAT_ID":"47167","OBJECT_TYPE":"PAYLOAD","MEAN_ELEMENT_THEORY":"SGP4","FILE":"3175135","MEAN_MOTION_DDOT":"0.0000000000000","ECCENTRICITY":"0.00060490","ELEMENT_SET_NO":"999","EPOCH":"2021-10-20T16:44:16.185984","APOAPSIS":"551.400","OBJECT_NAME":"STARLINK-1884"},{"EPOCH":"2021-10-20T16:38:57.849504","OBJECT_NAME":"STARLINK-1885","APOAPSIS":"548.134","MEAN_MOTION_DDOT":"0.0000000000000","ECCENTRICITY":"0.00013420","ELEMENT_SET_NO":"999","NORAD_CAT_ID":"47168","OBJECT_TYPE":"PAYLOAD","FILE":"3175135","MEAN_ELEMENT_THEORY":"SGP4","LAUNCH_DATE":"2020-11-25","RA_OF_ASC_NODE":"288.7725","TIME_SYSTEM":"UTC","SITE":"AFETR","CLASSIFICATION_TYPE":"U","REV_AT_EPOCH":"5053","TLE_LINE1":"1 47168U 20088AY  21293.69372511 -.00000571  00000-0 -19450-4 0  9993","MEAN_ANOMALY":"284.4199","RCS_SIZE":"LARGE","BSTAR":"-0.00001945000000","GP_ID":"187757161","EPHEMERIS_TYPE":"0","PERIAPSIS":"546.275","COUNTRY_CODE":"US","MEAN_MOTION_DOT":"-0.00000571","ARG_OF_PERICENTER":"75.6939","SEMIMAJOR_AXIS":"6925.340","MEAN_MOTION":"15.06402936","OBJECT_ID":"2020-088AY","CENTER_NAME":"EARTH","PERIOD":"95.592","REF_FRAME":"TEME","TLE_LINE2":"2 47168  53.0532 288.7725 0001342  75.6939 284.4199 15.06402936 50530","INCLINATION":"53.0532","DECAY_DATE":null},{"NORAD_CAT_ID":"47169","OBJECT_TYPE":"PAYLOAD","MEAN_ELEMENT_THEORY":"SGP4","FILE":"3175129","MEAN_MOTION_DDOT":"0.0281890000000","ECCENTRICITY":"0.00080240","ELEMENT_SET_NO":"999","EPOCH":"2021-10-21T00:51:21.324672","APOAPSIS":"237.399","OBJECT_NAME":"STARLINK-1886","MEAN_ANOMALY":"236.3442","TLE_LINE1":"1 47169U 20088AZ  21294.03566348  .03659620  28189-1  33504-2 0  9995","BSTAR":"0.00335040000000","RCS_SIZE":"LARGE","LAUNCH_DATE":"2020-11-25","RA_OF_ASC_NODE":"232.1737","TIME_SYSTEM":"UTC","REV_AT_EPOCH":"5166","CLASSIFICATION_TYPE":"U","SITE":"AFETR","ARG_OF_PERICENTER":"207.2088","SEMIMAJOR_AXIS":"6610.230","GP_ID":"187735049","EPHEMERIS_TYPE":"0","PERIAPSIS":"226.791","MEAN_MOTION_DOT":"0.03659620","COUNTRY_CODE":"US","INCLINATION":"53.0606","DECAY_DATE":null,"REF_FRAME":"TEME","TLE_LINE2":"2 47169  53.0606 232.1737 0008024 207.2088 236.3442 16.15391952 51669","OBJECT_ID":"2020-088AZ","MEAN_MOTION":"16.15391952","PERIOD":"89.142","CENTER_NAME":"EARTH"},{"TIME_SYSTEM":"UTC","RA_OF_ASC_NODE":"288.8267","LAUNCH_DATE":"2020-11-25","CLASSIFICATION_TYPE":"U","REV_AT_EPOCH":"5053","SITE":"AFETR","MEAN_ANOMALY":"296.8136","TLE_LINE1":"1 47170U 20088BA  21293.68265794 -.00000242  00000-0  26234-5 0  9992","BSTAR":"0.00000262340000","RCS_SIZE":"LARGE","ELEMENT_SET_NO":"999","MEAN_MOTION_DDOT":"0.0000000000000","ECCENTRICITY":"0.00014600","OBJECT_NAME":"STARLINK-1887","APOAPSIS":"548.229","EPOCH":"2021-10-20T16:23:01.646016","OBJECT_TYPE":"PAYLOAD","NORAD_CAT_ID":"47170","MEAN_ELEMENT_THEORY":"SGP4","FILE":"3175135","OBJECT_ID":"2020-088BA","MEAN_MOTION":"15.06398627","PERIOD":"95.592","CENTER_NAME":"EARTH","DECAY_DATE":null,"INCLINATION":"53.0539","TLE_LINE2":"2 47170  53.0539 288.8267 0001460  63.3003 296.8136 15.06398627 50538","REF_FRAME":"TEME","PERIAPSIS":"546.207","EPHEMERIS_TYPE":"0","GP_ID":"187756160","MEAN_MOTION_DOT":"-0.00000242","COUNTRY_CODE":"US","ARG_OF_PERICENTER":"63.3003","SEMIMAJOR_AXIS":"6925.353"}];
